STARLINK-36732          
1 67813U 26032S   26063.57834283  .00263164  00000+0  13284-2 0  9996
2 67813  97.2832 249.8847 0001616  67.2699 292.8740 15.80901375  3984
STARLINK-36767          
1 67814U 26032T   26063.50001157  .00031659  00000+0  21266-3 0  9998
2 67814  97.2832 249.7675 0001376  66.8667 124.5237 15.75154861  3948
STARLINK-36797          
1 67815U 26032U   26063.50001157  .00096927  00000+0  64524-3 0  9992
2 67815  97.2842 249.7897 0001752  90.0134 151.3770 15.75121761  3888
STARLINK-36343          
1 67816U 26032V   26063.57474157  .00227390  00000+0  11534-2 0  9996
2 67816  97.2838 249.8893 0001697  64.9859 295.1585 15.80887796  3988
STARLINK-36756          
1 67817U 26032W   26063.50001157  .00021872  00000+0  14731-3 0  9996
2 67817  97.2844 249.8101 0001154  83.4505 207.9217 15.75163086  3942
STARLINK-36346          
1 67818U 26032X   26063.56927964  .00242318  00000+0  12267-2 0  9997
2 67818  97.2839 249.8974 0001377  74.8674 285.2746 15.80893273  3987
STARLINK-36788          
1 67819U 26032Y   26063.50001157 -.00001640  00000+0 -10135-4 0  9996
2 67819  97.2840 249.7839 0001796  66.6364 162.7460 15.75169534  3880
STARLINK-36353          
1 67820U 26032Z   26063.50001157  .00056399  00000+0  37737-3 0  9993
2 67820  97.2840 249.7930 0001335  73.3958 177.9944 15.75136361  3941
STARLINK-36644          
1 67821U 26033A   26063.58051971  .00503798  00000+0  22406-2 0  9998
2 67821  42.9972 302.8373 0002416 255.9859 104.0745 15.82188180  3816
STARLINK-36643          
1 67822U 26033B   26063.57976912  .00567758  00000+0  24987-2 0  9991
2 67822  42.9973 302.8312 0003253 239.1382 120.9170 15.82250180  3815
STARLINK-36646          
1 67823U 26033C   26063.50001157  .00036318  00000+0  17488-3 0  9997
2 67823  42.9982 303.3086 0002089 256.8398  12.7190 15.81941718  3834
STARLINK-36647          
1 67824U 26033D   26063.13633353  .00378866  00000+0  17124-2 0  9999
2 67824  42.9972 305.5273 0002009 251.1858 108.8796 15.82162580  3749
